CCSDS_OMM_VERS = 2.0
CREATION_DATE  = 
ORIGINATOR     = 

OBJECT_NAME    = STARLINK-36602
OBJECT_ID      = 2026-033AE
CENTER_NAME    = EARTH
REF_FRAME      = TEME
TIME_SYSTEM    = UTC
MEAN_ELEMENT_THEORY = SGP/SGP4

EPOCH          = 2026-03-03T20:47:51.836352
MEAN_MOTION    = 15.82135655
ECCENTRICITY   = .00021221
INCLINATION    = 42.9973
RA_OF_ASC_NODE = 306.9327
ARG_OF_PERICENTER = 275.0027
MEAN_ANOMALY   = 85.0602

EPHEMERIS_TYPE = 0
CLASSIFICATION_TYPE = U
NORAD_CAT_ID   = 67849
ELEMENT_SET_NO = 999
REV_AT_EPOCH   = 370
BSTAR          = .13836636E-2
MEAN_MOTION_DOT = .302937E-2
MEAN_MOTION_DDOT = 0

CCSDS_OMM_VERS = 2.0
CREATION_DATE  = 
ORIGINATOR     = 

OBJECT_NAME    = STARLINK-36840
OBJECT_ID      = 2026-034A
CENTER_NAME    = EARTH
REF_FRAME      = TEME
TIME_SYSTEM    = UTC
MEAN_ELEMENT_THEORY = SGP/SGP4

EPOCH          = 2026-03-03T18:00:02.000160
MEAN_MOTION    = 15.80918050
ECCENTRICITY   = .00011094
INCLINATION    = 53.1582
RA_OF_ASC_NODE = 241.1267
ARG_OF_PERICENTER = 59.0687
MEAN_ANOMALY   = 79.0728

EPHEMERIS_TYPE = 0
CLASSIFICATION_TYPE = U
NORAD_CAT_ID   = 67850
ELEMENT_SET_NO = 999
REV_AT_EPOCH   = 295
BSTAR          = -.36167617E-3
MEAN_MOTION_DOT = -.71641E-3
MEAN_MOTION_DDOT = 0

CCSDS_OMM_VERS = 2.0
CREATION_DATE  = 
ORIGINATOR     = 

OBJECT_NAME    = STARLINK-36348
OBJECT_ID      = 2026-034B
CENTER_NAME    = EARTH
REF_FRAME      = TEME
TIME_SYSTEM    = UTC
MEAN_ELEMENT_THEORY = SGP/SGP4

EPOCH          = 2026-03-03T18:00:02.000160
MEAN_MOTION    = 15.80925606
ECCENTRICITY   = .00013331
INCLINATION    = 53.1585
RA_OF_ASC_NODE = 241.1171
ARG_OF_PERICENTER = 61.1141
MEAN_ANOMALY   = 81.2960

EPHEMERIS_TYPE = 0
CLASSIFICATION_TYPE = U
NORAD_CAT_ID   = 67851
ELEMENT_SET_NO = 999
REV_AT_EPOCH   = 290
BSTAR          = -.42514184E-3
MEAN_MOTION_DOT = -.84003E-3
MEAN_MOTION_DDOT = 0

CCSDS_OMM_VERS = 2.0
CREATION_DATE  = 
ORIGINATOR     = 

OBJECT_NAME    = STARLINK-36276
OBJECT_ID      = 2026-034C
CENTER_NAME    = EARTH
REF_FRAME      = TEME
TIME_SYSTEM    = UTC
MEAN_ELEMENT_THEORY = SGP/SGP4

EPOCH          = 2026-03-03T18:00:02.000160
MEAN_MOTION    = 15.80886745
ECCENTRICITY   = .0001481
INCLINATION    = 53.1585
RA_OF_ASC_NODE = 241.1081
ARG_OF_PERICENTER = 51.3014
MEAN_ANOMALY   = 95.4062

EPHEMERIS_TYPE = 0
CLASSIFICATION_TYPE = U
NORAD_CAT_ID   = 67852
ELEMENT_SET_NO = 999
REV_AT_EPOCH   = 290
BSTAR          = -.14291502E-3
MEAN_MOTION_DOT = -.28831E-3
MEAN_MOTION_DDOT = 0

CCSDS_OMM_VERS = 2.0
CREATION_DATE  = 
ORIGINATOR     = 

OBJECT_NAME    = STARLINK-36785
OBJECT_ID      = 2026-034D
CENTER_NAME    = EARTH
REF_FRAME      = TEME
TIME_SYSTEM    = UTC
MEAN_ELEMENT_THEORY = SGP/SGP4

EPOCH          = 2026-03-03T18:00:02.000160
MEAN_MOTION    = 15.80904872
ECCENTRICITY   = .00014423
INCLINATION    = 53.1585
RA_OF_ASC_NODE = 241.0991
ARG_OF_PERICENTER = 56.1360
MEAN_ANOMALY   = 94.8313

EPHEMERIS_TYPE = 0
CLASSIFICATION_TYPE = U
NORAD_CAT_ID   = 67853
ELEMENT_SET_NO = 999
REV_AT_EPOCH   = 290
BSTAR          = -.259302E-3
MEAN_MOTION_DOT = -.51649E-3
MEAN_MOTION_DDOT = 0

CCSDS_OMM_VERS = 2.0
CREATION_DATE  = 
ORIGINATOR     = 

OBJECT_NAME    = STARLINK-36608
OBJECT_ID      = 2026-034E
CENTER_NAME    = EARTH
REF_FRAME      = TEME
TIME_SYSTEM    = UTC
MEAN_ELEMENT_THEORY = SGP/SGP4

EPOCH          = 2026-03-03T18:00:02.000160
MEAN_MOTION    = 15.80915642
ECCENTRICITY   = .00014877
INCLINATION    = 53.1584
RA_OF_ASC_NODE = 241.0906
ARG_OF_PERICENTER = 49.4367
MEAN_ANOMALY   = 105.7986

EPHEMERIS_TYPE = 0
CLASSIFICATION_TYPE = U
NORAD_CAT_ID   = 67854
ELEMENT_SET_NO = 999
REV_AT_EPOCH   = 290
BSTAR          = -.35705782E-3
MEAN_MOTION_DOT = -.70739E-3
MEAN_MOTION_DDOT = 0

CCSDS_OMM_VERS = 2.0
CREATION_DATE  = 
ORIGINATOR     = 

OBJECT_NAME    = STARLINK-36838
OBJECT_ID      = 2026-034F
CENTER_NAME    = EARTH
REF_FRAME      = TEME
TIME_SYSTEM    = UTC
MEAN_ELEMENT_THEORY = SGP/SGP4

EPOCH          = 2026-03-03T18:00:02.000160
MEAN_MOTION    = 15.80896572
ECCENTRICITY   = .00014882
INCLINATION    = 53.1586
RA_OF_ASC_NODE = 241.0813
ARG_OF_PERICENTER = 43.9841
MEAN_ANOMALY   = 115.5344

EPHEMERIS_TYPE = 0
CLASSIFICATION_TYPE = U
NORAD_CAT_ID   = 67855
ELEMENT_SET_NO = 999
REV_AT_EPOCH   = 290
BSTAR          = -.24269987E-3
MEAN_MOTION_DOT = -.48387E-3
MEAN_MOTION_DDOT = 0

CCSDS_OMM_VERS = 2.0
CREATION_DATE  = 
ORIGINATOR     = 

OBJECT_NAME    = STARLINK-36843
OBJECT_ID      = 2026-034G
CENTER_NAME    = EARTH
REF_FRAME      = TEME
TIME_SYSTEM    = UTC
MEAN_ELEMENT_THEORY = SGP/SGP4

EPOCH          = 2026-03-03T18:00:02.000160
MEAN_MOTION    = 15.80910852
ECCENTRICITY   = .00010611
INCLINATION    = 53.1583
RA_OF_ASC_NODE = 241.0640
ARG_OF_PERICENTER = 77.0452
MEAN_ANOMALY   = 91.0003

EPHEMERIS_TYPE = 0
CLASSIFICATION_TYPE = U
NORAD_CAT_ID   = 67856
ELEMENT_SET_NO = 999
REV_AT_EPOCH   = 290
BSTAR          = -.26755168E-3
MEAN_MOTION_DOT = -.53272E-3
MEAN_MOTION_DDOT = 0

CCSDS_OMM_VERS = 2.0
CREATION_DATE  = 
ORIGINATOR     = 

OBJECT_NAME    = STARLINK-36828
OBJECT_ID      = 2026-034H
CENTER_NAME    = EARTH
REF_FRAME      = TEME
TIME_SYSTEM    = UTC
MEAN_ELEMENT_THEORY = SGP/SGP4

EPOCH          = 2026-03-03T18:00:02.000160
MEAN_MOTION    = 15.80915077
ECCENTRICITY   = .00011806
INCLINATION    = 53.1583
RA_OF_ASC_NODE = 241.0729
ARG_OF_PERICENTER = 64.2254
MEAN_ANOMALY   = 99.5445

EPHEMERIS_TYPE = 0
CLASSIFICATION_TYPE = U
NORAD_CAT_ID   = 67857
ELEMENT_SET_NO = 999
REV_AT_EPOCH   = 290
BSTAR          = -.28990869E-3
MEAN_MOTION_DOT = -.57648E-3
MEAN_MOTION_DDOT = 0

CCSDS_OMM_VERS = 2.0
CREATION_DATE  = 
ORIGINATOR     = 

OBJECT_NAME    = STARLINK-36837
OBJECT_ID      = 2026-034J
CENTER_NAME    = EARTH
REF_FRAME      = TEME
TIME_SYSTEM    = UTC
MEAN_ELEMENT_THEORY = SGP/SGP4

EPOCH          = 2026-03-03T18:00:02.000160
MEAN_MOTION    = 15.80891955
ECCENTRICITY   = .00012645
INCLINATION    = 53.1586
RA_OF_ASC_NODE = 241.0545
ARG_OF_PERICENTER = 71.9189
MEAN_ANOMALY   = 100.4135

EPHEMERIS_TYPE = 0
CLASSIFICATION_TYPE = U
NORAD_CAT_ID   = 67858
ELEMENT_SET_NO = 999
REV_AT_EPOCH   = 290
BSTAR          = -.15811605E-3
MEAN_MOTION_DOT = -.31819E-3
MEAN_MOTION_DDOT = 0

CCSDS_OMM_VERS = 2.0
CREATION_DATE  = 
ORIGINATOR     = 

OBJECT_NAME    = STARLINK-36393
OBJECT_ID      = 2026-034K
CENTER_NAME    = EARTH
REF_FRAME      = TEME
TIME_SYSTEM    = UTC
MEAN_ELEMENT_THEORY = SGP/SGP4

EPOCH          = 2026-03-03T18:00:02.000160
MEAN_MOTION    = 15.80897579
ECCENTRICITY   = .00009636
INCLINATION    = 53.1586
RA_OF_ASC_NODE = 241.0458
ARG_OF_PERICENTER = 52.6032
MEAN_ANOMALY   = 124.0046

EPHEMERIS_TYPE = 0
CLASSIFICATION_TYPE = U
NORAD_CAT_ID   = 67859
ELEMENT_SET_NO = 999
REV_AT_EPOCH   = 290
BSTAR          = -.23673684E-3
MEAN_MOTION_DOT = -.4722E-3
MEAN_MOTION_DDOT = 0

CCSDS_OMM_VERS = 2.0
CREATION_DATE  = 
ORIGINATOR     = 

OBJECT_NAME    = STARLINK-35873
OBJECT_ID      = 2026-034L
CENTER_NAME    = EARTH
REF_FRAME      = TEME
TIME_SYSTEM    = UTC
MEAN_ELEMENT_THEORY = SGP/SGP4

EPOCH          = 2026-03-03T14:00:03.000384
MEAN_MOTION    = 15.80842249
ECCENTRICITY   = .0000766
INCLINATION    = 53.1587
RA_OF_ASC_NODE = 241.8708
ARG_OF_PERICENTER = 72.2276
MEAN_ANOMALY   = 239.6370

EPHEMERIS_TYPE = 0
CLASSIFICATION_TYPE = U
NORAD_CAT_ID   = 67860
ELEMENT_SET_NO = 999
REV_AT_EPOCH   = 302
BSTAR          = .43702E-3
MEAN_MOTION_DOT = .86298E-3
MEAN_MOTION_DDOT = 0

