STARLINK-36602          
1 67849U 26033AE  26062.86657218  .00302937  00000+0  13837-2 0  9994
2 67849  42.9973 306.9327 0002122 275.0027  85.0602 15.82135655  3702
STARLINK-36840          
1 67850U 26034A   26062.75002315 -.00071641  00000+0 -36168-3 0  9997
2 67850  53.1582 241.1267 0001109  59.0687  79.0728 15.80918050  2957
STARLINK-36348          
1 67851U 26034B   26062.75002315 -.00084003  00000+0 -42514-3 0  9996
2 67851  53.1585 241.1171 0001333  61.1141  81.2960 15.80925606  2906
STARLINK-36276          
1 67852U 26034C   26062.75002315 -.00028831  00000+0 -14292-3 0  9996
2 67852  53.1585 241.1081 0001481  51.3014  95.4062 15.80886745  2901
STARLINK-36785          
1 67853U 26034D   26062.75002315 -.00051649  00000+0 -25930-3 0  9991
2 67853  53.1585 241.0991 0001442  56.1360  94.8313 15.80904872  2909
STARLINK-36608          
1 67854U 26034E   26062.75002315 -.00070739  00000+0 -35706-3 0  9995
2 67854  53.1584 241.0906 0001487  49.4367 105.7986 15.80915642  2901
STARLINK-36838          
1 67855U 26034F   26062.75002315 -.00048387  00000+0 -24270-3 0  9994
2 67855  53.1586 241.0813 0001488  43.9841 115.5344 15.80896572  2905
STARLINK-36843          
1 67856U 26034G   26062.75002315 -.00053272  00000+0 -26755-3 0  9994
2 67856  53.1583 241.0640 0001061  77.0452  91.0003 15.80910852  2902
STARLINK-36828          
1 67857U 26034H   26062.75002315 -.00057648  00000+0 -28991-3 0  9990
2 67857  53.1583 241.0729 0001180  64.2254  99.5445 15.80915077  2908
STARLINK-36837          
1 67858U 26034J   26062.75002315 -.00031819  00000+0 -15812-3 0  9991
2 67858  53.1586 241.0545 0001264  71.9189 100.4135 15.80891955  2909
STARLINK-36393          
1 67859U 26034K   26062.75002315 -.00047220  00000+0 -23674-3 0  9990
2 67859  53.1586 241.0458 0000963  52.6032 124.0046 15.80897579  2902
STARLINK-35873          
1 67860U 26034L   26062.58336806  .00086298  00000+0  43702-3 0  9998
2 67860  53.1587 241.8708 0000766  72.2276 239.6370 15.80842249  3021
